[{"OBJECT_NAME":"STARLINK-5136","OBJECT_ID":"2023-061AS","EPOCH":"2025-12-03T08:04:36.722496","MEAN_MOTION":15.02538013,"ECCENTRICITY":0.00011207,"INCLINATION":43.0035,"RA_OF_ASC_NODE":347.7609,"ARG_OF_PERICENTER":275.5433,"MEAN_ANOMALY":84.5282,"EPHEMERIS_TYPE":0,"CLASSIFICATION_TYPE":"U","NORAD_CAT_ID":56414,"ELEMENT_SET_NO":999,"REV_AT_EPOCH":14241,"BSTAR":5.2122972e-5,"MEAN_MOTION_DOT":5.01e-6,"MEAN_MOTION_DDOT":0},{"OBJECT_NAME":"STARLINK-6260","OBJECT_ID":"2023-061AU","EPOCH":"2025-12-03T01:18:17.231040","MEAN_MOTION":15.02527034,"ECCENTRICITY":0.00012592,"INCLINATION":43.0065,"RA_OF_ASC_NODE":336.9427,"ARG_OF_PERICENTER":275.0295,"MEAN_ANOMALY":85.0404,"EPHEMERIS_TYPE":0,"CLASSIFICATION_TYPE":"U","NORAD_CAT_ID":56416,"ELEMENT_SET_NO":999,"REV_AT_EPOCH":14251,"BSTAR":9.869786e-6,"MEAN_MOTION_DOT":-7.0e-7,"MEAN_MOTION_DDOT":0},{"OBJECT_NAME":"STARLINK-6261","OBJECT_ID":"2023-061AV","EPOCH":"2025-12-03T08:06:12.960000","MEAN_MOTION":15.02534222,"ECCENTRICITY":0.0001378,"INCLINATION":43.0066,"RA_OF_ASC_NODE":347.7738,"ARG_OF_PERICENTER":265.1361,"MEAN_ANOMALY":94.9324,"EPHEMERIS_TYPE":0,"CLASSIFICATION_TYPE":"U","NORAD_CAT_ID":56417,"ELEMENT_SET_NO":999,"REV_AT_EPOCH":14241,"BSTAR":1.5330772e-5,"MEAN_MOTION_DOT":3.0e-8,"MEAN_MOTION_DDOT":0},{"OBJECT_NAME":"STARLINK-5356","OBJECT_ID":"2023-061AW","EPOCH":"2025-12-03T07:22:00.362496","MEAN_MOTION":15.02532531,"ECCENTRICITY":0.00010487,"INCLINATION":43.004,"RA_OF_ASC_NODE":335.3937,"ARG_OF_PERICENTER":269.7396,"MEAN_ANOMALY":90.3326,"EPHEMERIS_TYPE":0,"CLASSIFICATION_TYPE":"U","NORAD_CAT_ID":56418,"ELEMENT_SET_NO":999,"REV_AT_EPOCH":14255,"BSTAR":7.015699e-6,"MEAN_MOTION_DOT":-1.09e-6,"MEAN_MOTION_DDOT":0},{"OBJECT_NAME":"STARLINK-5350","OBJECT_ID":"2023-061AX","EPOCH":"2025-12-03T08:01:25.572864","MEAN_MOTION":15.02529957,"ECCENTRICITY":0.00016495,"INCLINATION":43.0041,"RA_OF_ASC_NODE":347.7465,"ARG_OF_PERICENTER":271.7094,"MEAN_ANOMALY":88.3559,"EPHEMERIS_TYPE":0,"CLASSIFICATION_TYPE":"U","NORAD_CAT_ID":56419,"ELEMENT_SET_NO":999,"REV_AT_EPOCH":14241,"BSTAR":-8.2455e-7,"MEAN_MOTION_DOT":-2.15e-6,"MEAN_MOTION_DDOT":0},{"OBJECT_NAME":"STARLINK-6272","OBJECT_ID":"2023-061AY","EPOCH":"2025-12-03T00:54:18.004032","MEAN_MOTION":15.02550003,"ECCENTRICITY":0.00012636,"INCLINATION":43.0037,"RA_OF_ASC_NODE":336.812,"ARG_OF_PERICENTER":275.8996,"MEAN_ANOMALY":84.1703,"EPHEMERIS_TYPE":0,"CLASSIFICATION_TYPE":"U","NORAD_CAT_ID":56420,"ELEMENT_SET_NO":999,"REV_AT_EPOCH":14251,"BSTAR":0.00022081673,"MEAN_MOTION_DOT":2.781e-5,"MEAN_MOTION_DDOT":0},{"OBJECT_NAME":"STARLINK-6270","OBJECT_ID":"2023-061AZ","EPOCH":"2025-12-03T01:23:03.637536","MEAN_MOTION":15.02529809,"ECCENTRICITY":0.00012997,"INCLINATION":43.0035,"RA_OF_ASC_NODE":336.9593,"ARG_OF_PERICENTER":280.9974,"MEAN_ANOMALY":79.0722,"EPHEMERIS_TYPE":0,"CLASSIFICATION_TYPE":"U","NORAD_CAT_ID":56421,"ELEMENT_SET_NO":999,"REV_AT_EPOCH":14251,"BSTAR":-2.0494611e-5,"MEAN_MOTION_DOT":-4.8e-6,"MEAN_MOTION_DDOT":0},{"OBJECT_NAME":"STARLINK-6236","OBJECT_ID":"2023-061BA","EPOCH":"2025-12-03T00:44:41.985600","MEAN_MOTION":15.02539199,"ECCENTRICITY":0.00014077,"INCLINATION":43.006,"RA_OF_ASC_NODE":336.765,"ARG_OF_PERICENTER":268.4245,"MEAN_ANOMALY":91.6437,"EPHEMERIS_TYPE":0,"CLASSIFICATION_TYPE":"U","NORAD_CAT_ID":56422,"ELEMENT_SET_NO":999,"REV_AT_EPOCH":14251,"BSTAR":9.1826666e-5,"MEAN_MOTION_DOT":1.037e-5,"MEAN_MOTION_DDOT":0},{"OBJECT_NAME":"STARLINK-6239","OBJECT_ID":"2023-061BB","EPOCH":"2025-12-03T00:49:29.966304","MEAN_MOTION":15.0253656,"ECCENTRICITY":0.00011002,"INCLINATION":43.0035,"RA_OF_ASC_NODE":336.7854,"ARG_OF_PERICENTER":258.9866,"MEAN_ANOMALY":101.0852,"EPHEMERIS_TYPE":0,"CLASSIFICATION_TYPE":"U","NORAD_CAT_ID":56423,"ELEMENT_SET_NO":999,"REV_AT_EPOCH":14251,"BSTAR":6.709912e-5,"MEAN_MOTION_DOT":7.03e-6,"MEAN_MOTION_DDOT":0},{"OBJECT_NAME":"STARLINK-6242","OBJECT_ID":"2023-061BC","EPOCH":"2025-12-03T02:10:49.382112","MEAN_MOTION":15.02535264,"ECCENTRICITY":0.00015328,"INCLINATION":43.0059,"RA_OF_ASC_NODE":336.3497,"ARG_OF_PERICENTER":287.524,"MEAN_ANOMALY":72.5435,"EPHEMERIS_TYPE":0,"CLASSIFICATION_TYPE":"U","NORAD_CAT_ID":56424,"ELEMENT_SET_NO":999,"REV_AT_EPOCH":14252,"BSTAR":-2.7405965e-5,"MEAN_MOTION_DOT":-5.74e-6,"MEAN_MOTION_DDOT":0},{"OBJECT_NAME":"STARLINK-6224","OBJECT_ID":"2023-061BD","EPOCH":"2025-12-03T00:39:54.565632","MEAN_MOTION":15.02534184,"ECCENTRICITY":0.00011273,"INCLINATION":43.005,"RA_OF_ASC_NODE":336.7355,"ARG_OF_PERICENTER":263.9904,"MEAN_ANOMALY":96.081,"EPHEMERIS_TYPE":0,"CLASSIFICATION_TYPE":"U","NORAD_CAT_ID":56425,"ELEMENT_SET_NO":999,"REV_AT_EPOCH":14251,"BSTAR":4.5883277e-5,"MEAN_MOTION_DOT":4.16e-6,"MEAN_MOTION_DDOT":0},{"OBJECT_NAME":"STARLINK-5352","OBJECT_ID":"2023-061BE","EPOCH":"2025-12-03T06:29:25.612512","MEAN_MOTION":15.02534194,"ECCENTRICITY":0.00012236,"INCLINATION":43.0069,"RA_OF_ASC_NODE":335.9622,"ARG_OF_PERICENTER":262.4756,"MEAN_ANOMALY":97.5948,"EPHEMERIS_TYPE":0,"CLASSIFICATION_TYPE":"U","NORAD_CAT_ID":56426,"ELEMENT_SET_NO":999,"REV_AT_EPOCH":14254,"BSTAR":1.7805405e-5,"MEAN_MOTION_DOT":3.7e-7,"MEAN_MOTION_DDOT":0},{"OBJECT_NAME":"STARLINK-5724","OBJECT_ID":"2023-061BF","EPOCH":"2025-12-03T01:27:51.254496","MEAN_MOTION":15.02532518,"ECCENTRICITY":0.00010861,"INCLINATION":43.005,"RA_OF_ASC_NODE":336.9742,"ARG_OF_PERICENTER":258.8144,"MEAN_ANOMALY":101.2576,"EPHEMERIS_TYPE":0,"CLASSIFICATION_TYPE":"U","NORAD_CAT_ID":56427,"ELEMENT_SET_NO":999,"REV_AT_EPOCH":14251,"BSTAR":4.5956671e-5,"MEAN_MOTION_DOT":4.17e-6,"MEAN_MOTION_DDOT":0},{"OBJECT_NAME":"STARLINK-6238","OBJECT_ID":"2023-061BG","EPOCH":"2025-12-03T08:24:09.411552","MEAN_MOTION":15.02544997,"ECCENTRICITY":0.00011364,"INCLINATION":43.0043,"RA_OF_ASC_NODE":334.8539,"ARG_OF_PERICENTER":265.6168,"MEAN_ANOMALY":94.4544,"EPHEMERIS_TYPE":0,"CLASSIFICATION_TYPE":"U","NORAD_CAT_ID":56428,"ELEMENT_SET_NO":999,"REV_AT_EPOCH":14256,"BSTAR":0.0001573583,"MEAN_MOTION_DOT":1.923e-5,"MEAN_MOTION_DDOT":0},{"OBJECT_NAME":"STARLINK-6264","OBJECT_ID":"2023-061BH","EPOCH":"2025-12-03T08:19:22.382976","MEAN_MOTION":15.02532716,"ECCENTRICITY":0.00014133,"INCLINATION":43.0069,"RA_OF_ASC_NODE":334.8287,"ARG_OF_PERICENTER":266.7124,"MEAN_ANOMALY":93.3557,"EPHEMERIS_TYPE":0,"CLASSIFICATION_TYPE":"U","NORAD_CAT_ID":56429,"ELEMENT_SET_NO":999,"REV_AT_EPOCH":14256,"BSTAR":1.3856472e-5,"MEAN_MOTION_DOT":-1.7e-7,"MEAN_MOTION_DDOT":0},{"OBJECT_NAME":"STARLINK-5990","OBJECT_ID":"2023-064A","EPOCH":"2025-12-03T08:24:54.676512","MEAN_MOTION":14.98329368,"ECCENTRICITY":0.00031871,"INCLINATION":69.9999,"RA_OF_ASC_NODE":27.4356,"ARG_OF_PERICENTER":270.1499,"MEAN_ANOMALY":89.9294,"EPHEMERIS_TYPE":0,"CLASSIFICATION_TYPE":"U","NORAD_CAT_ID":56448,"ELEMENT_SET_NO":999,"REV_AT_EPOCH":14081,"BSTAR":4.4364581e-5,"MEAN_MOTION_DOT":4.36e-6,"MEAN_MOTION_DDOT":0},{"OBJECT_NAME":"STARLINK-5993","OBJECT_ID":"2023-064B","EPOCH":"2025-12-03T07:18:35.419968","MEAN_MOTION":14.98331486,"ECCENTRICITY":0.00029778,"INCLINATION":70.0004,"RA_OF_ASC_NODE":27.6737,"ARG_OF_PERICENTER":268.4876,"MEAN_ANOMALY":91.5942,"EPHEMERIS_TYPE":0,"CLASSIFICATION_TYPE":"U","NORAD_CAT_ID":56449,"ELEMENT_SET_NO":999,"REV_AT_EPOCH":14080,"BSTAR":7.4738098e-5,"MEAN_MOTION_DOT":7.99e-6,"MEAN_MOTION_DDOT":0},{"OBJECT_NAME":"STARLINK-5970","OBJECT_ID":"2023-064C","EPOCH":"2025-12-03T08:18:53.708544","MEAN_MOTION":14.98340935,"ECCENTRICITY":0.0003118,"INCLINATION":70.0005,"RA_OF_ASC_NODE":27.4204,"ARG_OF_PERICENTER":271.5448,"MEAN_ANOMALY":88.5354,"EPHEMERIS_TYPE":0,"CLASSIFICATION_TYPE":"U","NORAD_CAT_ID":56450,"ELEMENT_SET_NO":999,"REV_AT_EPOCH":14081,"BSTAR":-0.00029515099,"MEAN_MOTION_DOT":-3.614e-5,"MEAN_MOTION_DDOT":0},{"OBJECT_NAME":"STARLINK-5985","OBJECT_ID":"2023-064D","EPOCH":"2025-12-03T04:00:18.678240","MEAN_MOTION":14.98330833,"ECCENTRICITY":0.00031378,"INCLINATION":70.0005,"RA_OF_ASC_NODE":27.9954,"ARG_OF_PERICENTER":270.104,"MEAN_ANOMALY":89.9759,"EPHEMERIS_TYPE":0,"CLASSIFICATION_TYPE":"U","NORAD_CAT_ID":56451,"ELEMENT_SET_NO":999,"REV_AT_EPOCH":14078,"BSTAR":4.630325e-5,"MEAN_MOTION_DOT":4.6e-6,"MEAN_MOTION_DDOT":0},{"OBJECT_NAME":"STARLINK-5986","OBJECT_ID":"2023-064E","EPOCH":"2025-12-03T07:06:35.040096","MEAN_MOTION":14.98360996,"ECCENTRICITY":0.00031893,"INCLINATION":70.0023,"RA_OF_ASC_NODE":27.646,"ARG_OF_PERICENTER":279.6605,"MEAN_ANOMALY":80.4193,"EPHEMERIS_TYPE":0,"CLASSIFICATION_TYPE":"U","NORAD_CAT_ID":56452,"ELEMENT_SET_NO":999,"REV_AT_EPOCH":14080,"BSTAR":0.001190652,"MEAN_MOTION_DOT":0.00014154,"MEAN_MOTION_DDOT":0},{"OBJECT_NAME":"STARLINK-5935","OBJECT_ID":"2023-064F","EPOCH":"2025-12-03T08:36:41.687712","MEAN_MOTION":14.98328873,"ECCENTRICITY":0.00031269,"INCLINATION":70.0006,"RA_OF_ASC_NODE":27.4634,"ARG_OF_PERICENTER":269.2236,"MEAN_ANOMALY":90.8565,"EPHEMERIS_TYPE":0,"CLASSIFICATION_TYPE":"U","NORAD_CAT_ID":56453,"ELEMENT_SET_NO":999,"REV_AT_EPOCH":14081,"BSTAR":8.6405448e-5,"MEAN_MOTION_DOT":9.38e-6,"MEAN_MOTION_DDOT":0},{"OBJECT_NAME":"STARLINK-5959","OBJECT_ID":"2023-064G","EPOCH":"2025-12-03T08:06:38.496384","MEAN_MOTION":14.98320457,"ECCENTRICITY":0.00027076,"INCLINATION":70.0014,"RA_OF_ASC_NODE":27.3898,"ARG_OF_PERICENTER":252.9818,"MEAN_ANOMALY":107.1044,"EPHEMERIS_TYPE":0,"CLASSIFICATION_TYPE":"U","NORAD_CAT_ID":56454,"ELEMENT_SET_NO":999,"REV_AT_EPOCH":14081,"BSTAR":0.00069938914,"MEAN_MOTION_DOT":8.26e-5,"MEAN_MOTION_DDOT":0},{"OBJECT_NAME":"STARLINK-5987","OBJECT_ID":"2023-064H","EPOCH":"2025-12-03T08:00:37.649376","MEAN_MOTION":14.98335205,"ECCENTRICITY":0.00029899,"INCLINATION":70.0006,"RA_OF_ASC_NODE":27.3756,"ARG_OF_PERICENTER":271.3624,"MEAN_ANOMALY":88.7192,"EPHEMERIS_TYPE":0,"CLASSIFICATION_TYPE":"U","NORAD_CAT_ID":56455,"ELEMENT_SET_NO":999,"REV_AT_EPOCH":14081,"BSTAR":0.00010984902,"MEAN_MOTION_DOT":1.218e-5,"MEAN_MOTION_DDOT":0}]
